STRIX-1                 
1 53815U 22113A   26201.24664457  .00014821  00000+0  35938-3 0  9996
2 53815  97.4469 263.8898 0005627 119.4767 240.7041 15.41145192212536
STRIX-3                 
1 59224U 24047A   26201.23351049  .00004735  00000+0  22376-3 0  9998
2 59224  97.6643 177.4113 0011447 315.7878  44.2441 15.19857411129765
STRIX-4                 
1 60352U 24137A   26201.12230339  .00011953  00000+0  36875-3 0  9997
2 60352  43.0148  97.4985 0016806 165.6975 194.4358 15.33420234109078
STRIX-2                 
1 62406U 24248A   26201.29309788  .00003506  00000+0  22404-3 0  9993
2 62406  97.6301 156.7510 0014113 216.5924 143.4342 15.09220616 86580
STRIX-5                 
1 65971U 25229A   26201.02982810  .00001978  00000+0  14997-3 0  9996
2 65971  41.9279 105.2510 0038070 268.1482  91.4984 15.04609968 41924
STRIX-6                 
1 68291U 26056A   26201.09806438  .00000953  00000+0  96069-4 0  9994
2 68291  50.2822 194.1990 0016626  10.0146 350.1132 15.00339085 18214
STRIX-7                 
1 69177U 26112A   26201.03805437  .00001784  00000+0  15218-3 0  9992
2 69177  44.9096  19.8840 0025096 233.9722 125.8823 15.01628123  8819
STRIX-8                 
1 69701U 26146A   26201.26447230  .00002456  00000+0  18603-3 0  9998
2 69701  41.9906 345.0109 0006522  59.5833 300.5638 15.04459437  3543
