{"fetched_at":"2026-07-20T18:29:48.777Z","source":"https://celestrak.org/NORAD/elements/gp.php?NAME=STRIX&FORMAT=JSON","constellation":"synspective","records":[{"OBJECT_NAME":"STRIX-1","OBJECT_ID":"2022-113A","EPOCH":"2026-07-20T05:55:10.090848","CLASSIFICATION_TYPE":"U","MEAN_MOTION":15.41145192,"ECCENTRICITY":0.00056272,"INCLINATION":97.4469,"RA_OF_ASC_NODE":263.8898,"ARG_OF_PERICENTER":119.4767,"MEAN_ANOMALY":240.7041,"EPHEMERIS_TYPE":0,"NORAD_CAT_ID":53815,"ELEMENT_SET_NO":999,"REV_AT_EPOCH":21253,"BSTAR":0.00035938138,"MEAN_MOTION_DOT":0.00014821,"MEAN_MOTION_DDOT":0},{"OBJECT_NAME":"STRIX-3","OBJECT_ID":"2024-047A","EPOCH":"2026-07-20T05:36:15.306336","CLASSIFICATION_TYPE":"U","MEAN_MOTION":15.19857411,"ECCENTRICITY":0.00114476,"INCLINATION":97.6643,"RA_OF_ASC_NODE":177.4113,"ARG_OF_PERICENTER":315.7878,"MEAN_ANOMALY":44.2441,"EPHEMERIS_TYPE":0,"NORAD_CAT_ID":59224,"ELEMENT_SET_NO":999,"REV_AT_EPOCH":12976,"BSTAR":0.00022376428,"MEAN_MOTION_DOT":0.00004735,"MEAN_MOTION_DDOT":0},{"OBJECT_NAME":"STRIX-4","OBJECT_ID":"2024-137A","EPOCH":"2026-07-20T02:56:07.012896","CLASSIFICATION_TYPE":"U","MEAN_MOTION":15.33420234,"ECCENTRICITY":0.00168066,"INCLINATION":43.0148,"RA_OF_ASC_NODE":97.4985,"ARG_OF_PERICENTER":165.6975,"MEAN_ANOMALY":194.4358,"EPHEMERIS_TYPE":0,"NORAD_CAT_ID":60352,"ELEMENT_SET_NO":999,"REV_AT_EPOCH":10907,"BSTAR":0.00036874801,"MEAN_MOTION_DOT":0.00011953,"MEAN_MOTION_DDOT":0},{"OBJECT_NAME":"STRIX-2","OBJECT_ID":"2024-248A","EPOCH":"2026-07-20T07:02:03.656832","CLASSIFICATION_TYPE":"U","MEAN_MOTION":15.09220616,"ECCENTRICITY":0.00141131,"INCLINATION":97.6301,"RA_OF_ASC_NODE":156.751,"ARG_OF_PERICENTER":216.5924,"MEAN_ANOMALY":143.4342,"EPHEMERIS_TYPE":0,"NORAD_CAT_ID":62406,"ELEMENT_SET_NO":999,"REV_AT_EPOCH":8658,"BSTAR":0.00022404147,"MEAN_MOTION_DOT":0.00003506,"MEAN_MOTION_DDOT":0},{"OBJECT_NAME":"STRIX-5","OBJECT_ID":"2025-229A","EPOCH":"2026-07-20T00:42:57.147840","CLASSIFICATION_TYPE":"U","MEAN_MOTION":15.04609968,"ECCENTRICITY":0.003807,"INCLINATION":41.9279,"RA_OF_ASC_NODE":105.251,"ARG_OF_PERICENTER":268.1482,"MEAN_ANOMALY":91.4984,"EPHEMERIS_TYPE":0,"NORAD_CAT_ID":65971,"ELEMENT_SET_NO":999,"REV_AT_EPOCH":4192,"BSTAR":0.00014997015,"MEAN_MOTION_DOT":0.00001978,"MEAN_MOTION_DDOT":0},{"OBJECT_NAME":"STRIX-6","OBJECT_ID":"2026-056A","EPOCH":"2026-07-20T02:21:12.762432","CLASSIFICATION_TYPE":"U","MEAN_MOTION":15.00339085,"ECCENTRICITY":0.00166261,"INCLINATION":50.2822,"RA_OF_ASC_NODE":194.199,"ARG_OF_PERICENTER":10.0146,"MEAN_ANOMALY":350.1132,"EPHEMERIS_TYPE":0,"NORAD_CAT_ID":68291,"ELEMENT_SET_NO":999,"REV_AT_EPOCH":1821,"BSTAR":0.000096069156,"MEAN_MOTION_DOT":0.00000953,"MEAN_MOTION_DDOT":0},{"OBJECT_NAME":"STRIX-7","OBJECT_ID":"2026-112A","EPOCH":"2026-07-20T00:54:47.897568","CLASSIFICATION_TYPE":"U","MEAN_MOTION":15.01628123,"ECCENTRICITY":0.00250966,"INCLINATION":44.9096,"RA_OF_ASC_NODE":19.884,"ARG_OF_PERICENTER":233.9722,"MEAN_ANOMALY":125.8823,"EPHEMERIS_TYPE":0,"NORAD_CAT_ID":69177,"ELEMENT_SET_NO":999,"REV_AT_EPOCH":881,"BSTAR":0.00015218276,"MEAN_MOTION_DOT":0.00001784,"MEAN_MOTION_DDOT":0},{"OBJECT_NAME":"STRIX-8","OBJECT_ID":"2026-146A","EPOCH":"2026-07-20T06:20:50.406720","CLASSIFICATION_TYPE":"U","MEAN_MOTION":15.04459437,"ECCENTRICITY":0.00065224,"INCLINATION":41.9906,"RA_OF_ASC_NODE":345.0109,"ARG_OF_PERICENTER":59.5833,"MEAN_ANOMALY":300.5638,"EPHEMERIS_TYPE":0,"NORAD_CAT_ID":69701,"ELEMENT_SET_NO":999,"REV_AT_EPOCH":354,"BSTAR":0.00018603208,"MEAN_MOTION_DOT":0.00002456,"MEAN_MOTION_DDOT":0}]}
